[{"OBJECT_NAME":"STARLINK-36175","OBJECT_ID":"2025-293K","EPOCH":"2026-03-09T11:46:20.204832","MEAN_MOTION":14.98333042,"ECCENTRICITY":0.00028798,"INCLINATION":70.0001,"RA_OF_ASC_NODE":95.1336,"ARG_OF_PERICENTER":267.68,"MEAN_ANOMALY":92.403,"EPHEMERIS_TYPE":0,"CLASSIFICATION_TYPE":"U","NORAD_CAT_ID":67012,"ELEMENT_SET_NO":999,"REV_AT_EPOCH":1485,"BSTAR":0.0002615372,"MEAN_MOTION_DOT":3.029e-5,"MEAN_MOTION_DDOT":0},{"OBJECT_NAME":"CZ-2C DEB","OBJECT_ID":"2026-009C","EPOCH":"2026-03-09T19:20:16.840608","MEAN_MOTION":15.15876918,"ECCENTRICITY":0.01015815,"INCLINATION":97.2202,"RA_OF_ASC_NODE":140.8028,"ARG_OF_PERICENTER":36.3959,"MEAN_ANOMALY":324.4125,"EPHEMERIS_TYPE":0,"CLASSIFICATION_TYPE":"U","NORAD_CAT_ID":67586,"ELEMENT_SET_NO":999,"REV_AT_EPOCH":810,"BSTAR":0.0025681251,"MEAN_MOTION_DOT":0.0005635,"MEAN_MOTION_DDOT":0}]
